STARLINK-2446
1 47844U 21018BK  26092.80247721  .00008690  00000+0  29719-3 0  9992
2 47844  53.1586 133.7558 0002184  91.0322 269.0929 15.31067838280370
STARLINK-2517
1 48309U 21036AK  26092.41053942  .00003771  00000+0  13584-3 0  9994
2 48309  53.1606 338.1978 0001359  86.5491 273.5665 15.31055432271853
STARLINK-32120
1 60265U 24131L   26092.84194652  .00001106  00000+0  48310-4 0  9995
2 60265  53.1606 300.4405 0000951  80.1806 279.9303 15.31036974 95462
